ONEWEB-0687             
1 61595U 24188B   25362.60221052 -.00000002  00000+0 -39252-4 0  9993
2 61595  87.9082  39.8097 0001928 114.3365 245.7968 13.17648299 63438
ONEWEB-0688             
1 61596U 24188C   25362.63090110  .00000020  00000+0  17913-4 0  9994
2 61596  87.9082  39.8046 0002973 111.5313 248.6136 13.17648597 63436
ONEWEB-0689             
1 61597U 24188D   25362.66750507  .00000257  00000+0  68906-3 0  9990
2 61597  87.8839  54.9863 0001606 109.0892 251.0410 13.11417412 62107
ONEWEB-0690             
1 61598U 24188E   25362.67768095  .00000472  00000+0  12948-2 0  9996
2 61598  87.8854  55.0013 0002102  80.6701 279.4664 13.11415082 62284
ONEWEB-0691             
1 61599U 24188F   25362.67259278  .00000405  00000+0  11056-2 0  9990
2 61599  87.8836  54.8997 0002157 108.5048 251.6315 13.11415933 62131
ONEWEB-0692             
1 61600U 24188G   25362.69293088  .00000269  00000+0  72233-3 0  9995
2 61600  87.8834  55.0408 0000872  94.6858 265.4369 13.11413452 62123
ONEWEB-0693             
1 61601U 24188H   25362.64270604  .00000045  00000+0  83608-4 0  9991
2 61601  87.9088  39.8223 0002428  81.8740 278.2667 13.17650673 63429
ONEWEB-0695             
1 61602U 24188J   25362.66920006  .00000264  00000+0  70894-3 0  9997
2 61602  87.8840  55.0350 0001339 113.1154 247.0115 13.11417144 62119
